{"type":"FeatureCollection","features":[{"type":"Feature","id":387721,"geometry":{"type":"Polygon","coordinates":[[[-74.163504372762063,4.6311196061609303],[-74.163730566928493,4.6313791269396676],[-74.163750839951902,4.6314023867606888],[-74.164376989905634,4.6308583127246727],[-74.164403811314287,4.6308775642672915],[-74.164619170017218,4.6310321369968754],[-74.164729012466751,4.6309347476222751],[-74.165603919639025,4.6301587877814994],[-74.165878967815132,4.6299153143659515],[-74.165867666981271,4.6299064261842027],[-74.165846857195518,4.6298900581174989],[-74.165176333781616,4.6293626802685868],[-74.16516855005608,4.6293565589584063],[-74.16514349979397,4.6293368563295001],[-74.166042851808541,4.6285027309373863],[-74.166049323527716,4.6284967294652768],[-74.166055197347575,4.6285010329850067],[-74.166076651204932,4.6285167492830981],[-74.166087572726767,4.6285247497978501],[-74.16659343594219,4.6288953214141664],[-74.166629120331592,4.6289211714180194],[-74.166652646264438,4.6289382128227752],[-74.166652726443985,4.6289382715769145],[-74.166652943559342,4.6289384297610949],[-74.166665043460398,4.6289471949706975],[-74.166701518839602,4.6289736180494252],[-74.166706722401116,4.6289773873513393],[-74.166714034627375,4.6289710965864455],[-74.16673663253161,4.6289516538828757],[-74.166777687114489,4.62891633284893],[-74.166818789438494,4.6288809702297389],[-74.16685276240797,4.6288517428906548],[-74.16689096307735,4.6288188770478591],[-74.166928166499119,4.6287868690759693],[-74.166966942806482,4.6287535087542677],[-74.167009489178611,4.6287169058690028],[-74.167013811727912,4.6287221983420013],[-74.167069435501915,4.6287903062752926],[-74.16707781215004,4.6288011832026861],[-74.167103979942851,4.6288351635440064],[-74.167104803372183,4.6288361904016231],[-74.167110667378211,4.6288435004345052],[-74.167138579291844,4.6288782978898491],[-74.167172087646037,4.6289200745403836],[-74.167172458819948,4.6289205373494093],[-74.167206175287788,4.6289625725205212],[-74.167240103472935,4.6290048716357379],[-74.167240128698324,4.629004902369144],[-74.167274139767358,4.6290471779776974],[-74.167274165893673,4.6290472105189444],[-74.167307794968366,4.6290885487460018],[-74.167341999726901,4.6291305938394993],[-74.167342757390202,4.6291315239766444],[-74.167376637826081,4.6291731695342904],[-74.167410234480016,4.6292144679837843],[-74.167411838996912,4.6292164403444618],[-74.167442319436546,4.6292546690872376],[-74.167444442876842,4.6292572868492572],[-74.16744509693612,4.6292580940528314],[-74.167478589096078,4.6292993789429815],[-74.16751213801713,4.6293407334336241],[-74.167512370451448,4.6293410190733413],[-74.167546284244409,4.6293828264279941],[-74.167580495341085,4.629424997158015],[-74.167584565645683,4.6294300157396702],[-74.167608487833149,4.6294718134475854],[-74.16761403030705,4.6294814990538953],[-74.167641879145165,4.6295141333502023],[-74.167676951459484,4.6295552319706008],[-74.16768275510357,4.6295620330793641],[-74.16771228864458,4.6295966397305222],[-74.167747660068272,4.629638088165148],[-74.167753227675945,4.6296446117692911],[-74.167781900904671,4.6296798078157817],[-74.16780098125669,4.6297032302657062],[-74.167816329139939,4.6297219496014721],[-74.167850468182905,4.6297635851849437],[-74.167870002593048,4.6297874098747931],[-74.167884833358102,4.6298054982710344],[-74.167918908444577,4.6298470561138299],[-74.167994051488478,4.6299387048232603],[-74.168003681309472,4.629950448584685],[-74.168037717664006,4.6299917361432659],[-74.168044256029319,4.629985223017675],[-74.168053691526168,4.6299758226021952],[-74.168461396819851,4.6295696267225805],[-74.168465450637584,4.6295655877687079],[-74.16850964624642,4.6295212388342497],[-74.168459754735338,4.6294591673823593],[-74.166708049209277,4.6272798261377792],[-74.166065573358154,4.6264805000367755],[-74.166061606683755,4.6264755646063627],[-74.166056554421772,4.626469279615959],[-74.16604128497292,4.6264814444311231],[-74.166039399380793,4.6264789902723082],[-74.165157990620841,4.625404243259533],[-74.164988951333399,4.6251981229085057],[-74.164949619258039,4.6252302754643919],[-74.164930855421829,4.6252456140985698],[-74.164928887061237,4.6252472240765616],[-74.163611587887672,4.6263240784612627],[-74.163679866477281,4.6263871839233124],[-74.163498969173929,4.6265593609519184],[-74.16194414979887,4.6280392237842651],[-74.161936315057744,4.6280466589053937],[-74.161713489258275,4.6282581128094735],[-74.161416956165624,4.6285413541121807],[-74.161551254669192,4.6287852166857304],[-74.161542798590247,4.6288059063641809],[-74.161869400564498,4.6293361725460533],[-74.161898022382303,4.6293826401274325],[-74.161926815376347,4.6294293897348249],[-74.161983263529535,4.6295210376912692],[-74.162011472764732,4.6295676743148597],[-74.162067586740449,4.6296605028243016],[-74.162118091673548,4.6297440533602199],[-74.162135136317318,4.6297471128363092],[-74.162297759523298,4.6297763066348772],[-74.16238832782696,4.6298402017704134],[-74.162480643874602,4.6299053325476107],[-74.162509218872472,4.62995013232619],[-74.162574092941966,4.6300373959090528],[-74.162640311176133,4.6301264682494061],[-74.162677459860816,4.6301723435191979],[-74.162747437262965,4.6302518719095858],[-74.162817481347389,4.6303314753188713],[-74.16306884889417,4.6306199319170531],[-74.163125743512353,4.63068521982491],[-74.163504372762063,4.6311196061609303]]]},"properties":{"SHAPE.AREA":242450.58816860503,"SHAPE.LEN":2533.56728453904,"OBJECTID":387721,"CODIGO_ID":null,"NOMBRE":"BARRIO EL AMPARO","ESTADO":1,"LLAVE_PLANO":"080530B001","LLAVE_ACTUACION":null,"ACTO_ADMINISTRATIVO":"RES","NUMERO_ACTO_ADMINISTRATIVO":"0566","FECHA_ACTO_ADMINISTRATIVO":977270400000,"NUMERO_PLANO":"K47/4-05","AREA_TOTAL":24.199999999999999,"LOTES_TOTAL":1991,"POBLACION_ESTIMADA":10751.4,"DENSIDAD":82.272727270000004,"AREAS_ZVC":6887,"OBSERVACIONES":null,"CODIGO_UPZ":80,"CODIGO_LOCALIDAD":"08","ESCALA_CAPTURA":"1:500","FECHA_CAPTURA":1549065600000,"RESPONSABLE":"554"}}]}